{
  "norad_id": 41434,
  "name": "BEIDOU-2 IGSO-6",
  "history": [
    {
      "epoch": "2026-03-24T21:08:57.365664Z",
      "apogee_km": 36034.3303844518,
      "perigee_km": 35537.646264238596,
      "latitude_deg": -13.946893329393465,
      "longitude_deg": 87.45123340594041,
      "height_km": 35591.83459587575,
      "semi_major_axis_km": 42164.1253243452,
      "eccentricity": 0.00588989,
      "inclination_deg": 60.1156,
      "raan_deg": 38.8764,
      "arg_perigee_deg": 233.5118,
      "mean_anomaly_deg": 322.9213,
      "mean_motion_rev_day": 1.00273949
    }
  ]
}